[
    {
        "Altitude(m)": 557534.7182839467,
        "Argument of Periapsis(deg)": 0.019868973332140504,
        "Eccentricity": 0.0,
        "Inclination(deg)": 53.0,
        "Latitude(deg)": -15.533954666156367,
        "Longitude(deg)": 164.6432037657394,
        "Mean Anomaly(deg)": 199.36577860273277,
        "RAAN(deg)": 74.97043010558404,
        "Satellite Name": "Starlink Shell 1 340",
        "Satellite Number": 340,
        "Semi-Major Axis(m)": 6931778.249405717,
        "Time(s)": 570
    },
    {
        "Altitude(m)": 557677.4996907994,
        "Argument of Periapsis(deg)": 0.02021755181165174,
        "Eccentricity": 0.0,
        "Inclination(deg)": 53.0,
        "Latitude(deg)": -16.025709033416913,
        "Longitude(deg)": 165.00811134328296,
        "Mean Anomaly(deg)": 199.99260980628947,
        "RAAN(deg)": 74.96991133550658,
        "Satellite Name": "Starlink Shell 1 340",
        "Satellite Number": 340,
        "Semi-Major Axis(m)": 6931778.249405717,
        "Time(s)": 580
    },
    {
        "Altitude(m)": 557822.160260438,
        "Argument of Periapsis(deg)": 0.020566130291162974,
        "Eccentricity": 0.0,
        "Inclination(deg)": 53.0,
        "Latitude(deg)": -16.516654453371665,
        "Longitude(deg)": 165.37499917909645,
        "Mean Anomaly(deg)": 200.61944100984624,
        "RAAN(deg)": 74.9693925654291,
        "Satellite Name": "Starlink Shell 1 340",
        "Satellite Number": 340,
        "Semi-Major Axis(m)": 6931778.249405717,
        "Time(s)": 590
    },
    {
        "Altitude(m)": 557968.6522925947,
        "Argument of Periapsis(deg)": 0.020914708770674213,
        "Eccentricity": 0.0,
        "Inclination(deg)": 53.0,
        "Latitude(deg)": -17.006761444305624,
        "Longitude(deg)": 165.7439382312078,
        "Mean Anomaly(deg)": 201.2462722134029,
        "RAAN(deg)": 74.96887379535163,
        "Satellite Name": "Starlink Shell 1 340",
        "Satellite Number": 340,
        "Semi-Major Axis(m)": 6931778.249405717,
        "Time(s)": 600
    },
    {
        "Altitude(m)": 558116.9271221601,
        "Argument of Periapsis(deg)": 0.021263287250185448,
        "Eccentricity": 0.0,
        "Inclination(deg)": 53.0,
        "Latitude(deg)": -17.496000074249483,
        "Longitude(deg)": 166.11500031166193,
        "Mean Anomaly(deg)": 201.8731034169596,
        "RAAN(deg)": 74.96835502527416,
        "Satellite Name": "Starlink Shell 1 340",
        "Satellite Number": 340,
        "Semi-Major Axis(m)": 6931778.249405717,
        "Time(s)": 610
    },
    {
        "Altitude(m)": 558266.9351406209,
        "Argument of Periapsis(deg)": 0.021611865729696686,
        "Eccentricity": 0.0,
        "Inclination(deg)": 53.0,
        "Latitude(deg)": -17.984339942833518,
        "Longitude(deg)": 166.48825861713817,
        "Mean Anomaly(deg)": 202.49993462051637,
        "RAAN(deg)": 74.96783625519669,
        "Satellite Name": "Starlink Shell 1 340",
        "Satellite Number": 340,
        "Semi-Major Axis(m)": 6931778.249405717,
        "Time(s)": 620
    },
    {
        "Altitude(m)": 558418.6258179579,
        "Argument of Periapsis(deg)": 0.02196044420920792,
        "Eccentricity": 0.0,
        "Inclination(deg)": 53.0,
        "Latitude(deg)": -18.471750162737273,
        "Longitude(deg)": 166.8637865784298,
        "Mean Anomaly(deg)": 203.1267658240731,
        "RAAN(deg)": 74.96731748511921,
        "Satellite Name": "Starlink Shell 1 340",
        "Satellite Number": 340,
        "Semi-Major Axis(m)": 6931778.249405717,
        "Time(s)": 630
    },
    {
        "Altitude(m)": 558571.9477249875,
        "Argument of Periapsis(deg)": 0.02230902268871916,
        "Eccentricity": 0.0,
        "Inclination(deg)": 53.0,
        "Latitude(deg)": -18.95819934073207,
        "Longitude(deg)": 167.2416592311721,
        "Mean Anomaly(deg)": 203.75359702762978,
        "RAAN(deg)": 74.96679871504175,
        "Satellite Name": "Starlink Shell 1 340",
        "Satellite Number": 340,
        "Semi-Major Axis(m)": 6931778.249405717,
        "Time(s)": 640
    },
    {
        "Altitude(m)": 558726.8485561458,
        "Argument of Periapsis(deg)": 0.022657601168230398,
        "Eccentricity": 0.0,
        "Inclination(deg)": 53.0,
        "Latitude(deg)": -19.443655558293887,
        "Longitude(deg)": 167.62195206486297,
        "Mean Anomaly(deg)": 204.38042823118653,
        "RAAN(deg)": 74.96627994496427,
        "Satellite Name": "Starlink Shell 1 340",
        "Satellite Number": 340,
        "Semi-Major Axis(m)": 6931778.249405717,
        "Time(s)": 650
    },
    {
        "Altitude(m)": 558883.2751526792,
        "Argument of Periapsis(deg)": 0.023006179647741636,
        "Eccentricity": 0.0,
        "Inclination(deg)": 53.0,
        "Latitude(deg)": -19.92808635178516,
        "Longitude(deg)": 168.0047415525557,
        "Mean Anomaly(deg)": 205.00725943474316,
        "RAAN(deg)": 74.9657611748868,
        "Satellite Name": "Starlink Shell 1 340",
        "Satellite Number": 340,
        "Semi-Major Axis(m)": 6931778.249405717,
        "Time(s)": 660
    },
    {
        "Altitude(m)": 559041.173526269,
        "Argument of Periapsis(deg)": 0.023354758127252868,
        "Eccentricity": 0.0,
        "Inclination(deg)": 53.0,
        "Latitude(deg)": -20.411458692190212,
        "Longitude(deg)": 168.39010568019933,
        "Mean Anomaly(deg)": 205.63409063829988,
        "RAAN(deg)": 74.96524240480933,
        "Satellite Name": "Starlink Shell 1 340",
        "Satellite Number": 340,
        "Semi-Major Axis(m)": 6931778.249405717,
        "Time(s)": 670
    },
    {
        "Altitude(m)": 559200.4888830517,
        "Argument of Periapsis(deg)": 0.023703336606764106,
        "Eccentricity": 0.0,
        "Inclination(deg)": 53.0,
        "Latitude(deg)": -20.893738964391776,
        "Longitude(deg)": 168.7781229626956,
        "Mean Anomaly(deg)": 206.26092184185663,
        "RAAN(deg)": 74.96472363473185,
        "Satellite Name": "Starlink Shell 1 340",
        "Satellite Number": 340,
        "Semi-Major Axis(m)": 6931778.249405717,
        "Time(s)": 680
    },
    {
        "Altitude(m)": 559361.1656480003,
        "Argument of Periapsis(deg)": 0.024051915086275345,
        "Eccentricity": 0.0,
        "Inclination(deg)": 53.0,
        "Latitude(deg)": -21.37489294598496,
        "Longitude(deg)": 169.1688729723568,
        "Mean Anomaly(deg)": 206.88775304541335,
        "RAAN(deg)": 74.96420486465438,
        "Satellite Name": "Starlink Shell 1 340",
        "Satellite Number": 340,
        "Semi-Major Axis(m)": 6931778.249405717,
        "Time(s)": 690
    },
    {
        "Altitude(m)": 559523.1474897144,
        "Argument of Periapsis(deg)": 0.024400493565786583,
        "Eccentricity": 0.0,
        "Inclination(deg)": 53.0,
        "Latitude(deg)": -21.854885785615213,
        "Longitude(deg)": 169.56243686682066,
        "Mean Anomaly(deg)": 207.51458424897007,
        "RAAN(deg)": 74.96368609457691,
        "Satellite Name": "Starlink Shell 1 340",
        "Satellite Number": 340,
        "Semi-Major Axis(m)": 6931778.249405717,
        "Time(s)": 700
    },
    {
        "Altitude(m)": 559686.3773455403,
        "Argument of Periapsis(deg)": 0.024749072045297815,
        "Eccentricity": 0.0,
        "Inclination(deg)": 53.0,
        "Latitude(deg)": -22.333681980829645,
        "Longitude(deg)": 169.9588964034733,
        "Mean Anomaly(deg)": 208.14141545252676,
        "RAAN(deg)": 74.96316732449944,
        "Satellite Name": "Starlink Shell 1 340",
        "Satellite Number": 340,
        "Semi-Major Axis(m)": 6931778.249405717,
        "Time(s)": 710
    },
    {
        "Altitude(m)": 559850.7974470764,
        "Argument of Periapsis(deg)": 0.025097650524809053,
        "Eccentricity": 0.0,
        "Inclination(deg)": 53.0,
        "Latitude(deg)": -22.811245355439738,
        "Longitude(deg)": 170.358334466047,
        "Mean Anomaly(deg)": 208.7682466560835,
        "RAAN(deg)": 74.96264855442196,
        "Satellite Name": "Starlink Shell 1 340",
        "Satellite Number": 340,
        "Semi-Major Axis(m)": 6931778.249405717,
        "Time(s)": 720
    },
    {
        "Altitude(m)": 560016.34934596,
        "Argument of Periapsis(deg)": 0.02544622900432029,
        "Eccentricity": 0.0,
        "Inclination(deg)": 53.0,
        "Latitude(deg)": -23.28753903638389,
        "Longitude(deg)": 170.76083559042726,
        "Mean Anomaly(deg)": 209.39507785964022,
        "RAAN(deg)": 74.9621297843445,
        "Satellite Name": "Starlink Shell 1 340",
        "Satellite Number": 340,
        "Semi-Major Axis(m)": 6931778.249405717,
        "Time(s)": 730
    },
    {
        "Altitude(m)": 560182.9739400387,
        "Argument of Periapsis(deg)": 0.02579480748383153,
        "Eccentricity": 0.0,
        "Inclination(deg)": 53.0,
        "Latitude(deg)": -23.76252543008279,
        "Longitude(deg)": 171.16648497670155,
        "Mean Anomaly(deg)": 210.02190906319694,
        "RAAN(deg)": 74.96161101426702,
        "Satellite Name": "Starlink Shell 1 340",
        "Satellite Number": 340,
        "Semi-Major Axis(m)": 6931778.249405717,
        "Time(s)": 740
    },
    {
        "Altitude(m)": 560350.6114998081,
        "Argument of Periapsis(deg)": 0.026143385963342765,
        "Eccentricity": 0.0,
        "Inclination(deg)": 53.0,
        "Latitude(deg)": -24.236166198285893,
        "Longitude(deg)": 171.5753690130904,
        "Mean Anomaly(deg)": 210.6487402667537,
        "RAAN(deg)": 74.96109224418954,
        "Satellite Name": "Starlink Shell 1 340",
        "Satellite Number": 340,
        "Semi-Major Axis(m)": 6931778.249405717,
        "Time(s)": 750
    }
]